[{"OBJECT_NAME":"STARLINK-34337","OBJECT_ID":"2025-117W","EPOCH":"2026-03-09T07:10:17.114880","MEAN_MOTION":15.30194023,"ECCENTRICITY":0.00011994,"INCLINATION":53.1613,"RA_OF_ASC_NODE":41.5755,"ARG_OF_PERICENTER":96.3533,"MEAN_ANOMALY":263.7604,"EPHEMERIS_TYPE":0,"CLASSIFICATION_TYPE":"U","NORAD_CAT_ID":64223,"ELEMENT_SET_NO":999,"REV_AT_EPOCH":4446,"BSTAR":0.001092497,"MEAN_MOTION_DOT":0.00032131,"MEAN_MOTION_DDOT":0},{"OBJECT_NAME":"OBJECT BE","OBJECT_ID":"2025-313BE","EPOCH":"2026-03-09T16:43:59.380320","MEAN_MOTION":15.29801687,"ECCENTRICITY":0.00072083,"INCLINATION":97.3989,"RA_OF_ASC_NODE":145.3568,"ARG_OF_PERICENTER":335.3714,"MEAN_ANOMALY":24.7181,"EPHEMERIS_TYPE":0,"CLASSIFICATION_TYPE":"U","NORAD_CAT_ID":67482,"ELEMENT_SET_NO":999,"REV_AT_EPOCH":797,"BSTAR":0.0026504328,"MEAN_MOTION_DOT":0.00077178,"MEAN_MOTION_DDOT":0}]
